{"type": "FeatureCollection", "features": [ {"type": "Feature", "properties": {"norad_id": 66960, "name": "STARLINK-35879", "group": "last-30-days", "lat": -42.77682235086346, "lon": -4.829598844827105, "alt_km": 400.761832752386, "timestamp": "2025-12-27T08:36:17.079766+00:00", "meta": {"OBJECT_NAME": "STARLINK-35879", "OBJECT_ID": "2025-288B", "EPOCH": "2025-12-27T04:00:01.998720", "MEAN_MOTION": 15.57183297, "ECCENTRICITY": 0.0001241, "INCLINATION": 42.9998, "RA_OF_ASC_NODE": 79.4906, "ARG_OF_PERICENTER": 263.7526, "MEAN_ANOMALY": 14.8167, "EPHEMERIS_TYPE": 0, "CLASSIFICATION_TYPE": "U", "NORAD_CAT_ID": 66960, "ELEMENT_SET_NO": 999, "REV_AT_EPOCH": 414, "BSTAR": -0.030615, "MEAN_MOTION_DOT": -0.02041494, "MEAN_MOTION_DDOT": 0}, "tle": {"line1": "1 66960U 25288B   25361.16668980 -.02041494  00000+0 -30615-1 0  9994", "line2": "2 66960  42.9998  79.4906 0001241 263.7526  14.8167 15.57183297  4148"}}, "geometry": {"type": "Point", "coordinates": [-4.829598844827105, -42.77682235086346]}}, {"type": "Feature", "properties": {"norad_id": 66961, "name": "STARLINK-35761", "group": "last-30-days", "lat": -42.592469714323975, "lon": -2.2411812874693404, "alt_km": 400.7245006240046, "timestamp": "2025-12-27T08:36:17.079776+00:00", "meta": {"OBJECT_NAME": "STARLINK-35761", "OBJECT_ID": "2025-288C", "EPOCH": "2025-12-27T04:00:01.998720", "MEAN_MOTION": 15.57185827, "ECCENTRICITY": 0.0001282, "INCLINATION": 42.9996, "RA_OF_ASC_NODE": 79.4861, "ARG_OF_PERICENTER": 265.9734, "MEAN_ANOMALY": 14.5129, "EPHEMERIS_TYPE": 0, "CLASSIFICATION_TYPE": "U", "NORAD_CAT_ID": 66961, "ELEMENT_SET_NO": 999, "REV_AT_EPOCH": 414, "BSTAR": -0.030691, "MEAN_MOTION_DOT": -0.02046221, "MEAN_MOTION_DDOT": 0}, "tle": {"line1": "1 66961U 25288C   25361.16668980 -.02046221  00000+0 -30691-1 0  9992", "line2": "2 66961  42.9996  79.4861 0001282 265.9734  14.5129 15.57185827  4143"}}, "geometry": {"type": "Point", "coordinates": [-2.2411812874693404, -42.592469714323975]}}, {"type": "Feature", "properties": {"norad_id": 66962, "name": "STARLINK-35874", "group": "last-30-days", "lat": -42.351132825442896, "lon": 0.3245515998032496, "alt_km": 400.5984159926775, "timestamp": "2025-12-27T08:36:17.079786+00:00", "meta": {"OBJECT_NAME": "STARLINK-35874", "OBJECT_ID": "2025-288D", "EPOCH": "2025-12-27T04:00:01.998720", "MEAN_MOTION": 15.57179592, "ECCENTRICITY": 0.0001461, "INCLINATION": 43, "RA_OF_ASC_NODE": 79.4813, "ARG_OF_PERICENTER": 266.8362, "MEAN_ANOMALY": 15.566, "EPHEMERIS_TYPE": 0, "CLASSIFICATION_TYPE": "U", "NORAD_CAT_ID": 66962, "ELEMENT_SET_NO": 999, "REV_AT_EPOCH": 414, "BSTAR": -0.030481, "MEAN_MOTION_DOT": -0.02033404, "MEAN_MOTION_DDOT": 0}, "tle": {"line1": "1 66962U 25288D   25361.16668980 -.02033404  00000+0 -30481-1 0  9999", "line2": "2 66962  43.0000  79.4813 0001461 266.8362  15.5660 15.57179592  4148"}}, "geometry": {"type": "Point", "coordinates": [0.3245515998032496, -42.351132825442896]}}, {"type": "Feature", "properties": {"norad_id": 66963, "name": "STARLINK-36133", "group": "last-30-days", "lat": -42.050753953354025, "lon": 2.8798158074418305, "alt_km": 400.6189924753198, "timestamp": "2025-12-27T08:36:17.079796+00:00", "meta": {"OBJECT_NAME": "STARLINK-36133", "OBJECT_ID": "2025-288E", "EPOCH": "2025-12-27T04:00:01.998720", "MEAN_MOTION": 15.57187609, "ECCENTRICITY": 0.0001446, "INCLINATION": 42.9998, "RA_OF_ASC_NODE": 79.4764, "ARG_OF_PERICENTER": 262.895, "MEAN_ANOMALY": 21.4252, "EPHEMERIS_TYPE": 0, "CLASSIFICATION_TYPE": "U", "NORAD_CAT_ID": 66963, "ELEMENT_SET_NO": 999, "REV_AT_EPOCH": 414, "BSTAR": -0.030707, "MEAN_MOTION_DOT": -0.02047399, "MEAN_MOTION_DDOT": 0}, "tle": {"line1": "1 66963U 25288E   25361.16668980 -.02047399  00000+0 -30707-1 0  9999", "line2": "2 66963  42.9998  79.4764 0001446 262.8950  21.4252 15.57187609  4141"}}, "geometry": {"type": "Point", "coordinates": [2.8798158074418305, -42.050753953354025]}}, {"type": "Feature", "properties": {"norad_id": 66964, "name": "STARLINK-36104", "group": "last-30-days", "lat": -41.69607650511214, "lon": 5.398444303210153, "alt_km": 400.6034955632467, "timestamp": "2025-12-27T08:36:17.079808+00:00", "meta": {"OBJECT_NAME": "STARLINK-36104", "OBJECT_ID": "2025-288F", "EPOCH": "2025-12-27T04:00:01.998720", "MEAN_MOTION": 15.57184422, "ECCENTRICITY": 0.0001445, "INCLINATION": 43.0001, "RA_OF_ASC_NODE": 79.4712, "ARG_OF_PERICENTER": 265.4057, "MEAN_ANOMALY": 20.8315, "EPHEMERIS_TYPE": 0, "CLASSIFICATION_TYPE": "U", "NORAD_CAT_ID": 66964, "ELEMENT_SET_NO": 999, "REV_AT_EPOCH": 414, "BSTAR": -0.03062, "MEAN_MOTION_DOT": -0.02042004, "MEAN_MOTION_DDOT": 0}, "tle": {"line1": "1 66964U 25288F   25361.16668980 -.02042004  00000+0 -30620-1 0  9992", "line2": "2 66964  43.0001  79.4712 0001445 265.4057  20.8315 15.57184422  4141"}}, "geometry": {"type": "Point", "coordinates": [5.398444303210153, -41.69607650511214]}}, {"type": "Feature", "properties": {"norad_id": 66965, "name": "STARLINK-36067", "group": "last-30-days", "lat": -41.28592410118661, "lon": 7.89070661332476, "alt_km": 400.68621033673116, "timestamp": "2025-12-27T08:36:17.079818+00:00", "meta": {"OBJECT_NAME": "STARLINK-36067", "OBJECT_ID": "2025-288G", "EPOCH": "2025-12-27T04:00:01.998720", "MEAN_MOTION": 15.57186318, "ECCENTRICITY": 0.0001298, "INCLINATION": 42.9999, "RA_OF_ASC_NODE": 79.4672, "ARG_OF_PERICENTER": 267.1295, "MEAN_ANOMALY": 21.025, "EPHEMERIS_TYPE": 0, "CLASSIFICATION_TYPE": "U", "NORAD_CAT_ID": 66965, "ELEMENT_SET_NO": 999, "REV_AT_EPOCH": 414, "BSTAR": -0.030716, "MEAN_MOTION_DOT": -0.02047728, "MEAN_MOTION_DDOT": 0}, "tle": {"line1": "1 66965U 25288G   25361.16668980 -.02047728  00000+0 -30716-1 0  9997", "line2": "2 66965  42.9999  79.4672 0001298 267.1295  21.0250 15.57186318  4147"}}, "geometry": {"type": "Point", "coordinates": [7.89070661332476, -41.28592410118661]}}, {"type": "Feature", "properties": {"norad_id": 66966, "name": "STARLINK-36139", "group": "last-30-days", "lat": -40.82251679178289, "lon": 10.349775756869041, "alt_km": 400.52087175909764, "timestamp": "2025-12-27T08:36:17.079827+00:00", "meta": {"OBJECT_NAME": "STARLINK-36139", "OBJECT_ID": "2025-288H", "EPOCH": "2025-12-27T04:00:01.998720", "MEAN_MOTION": 15.57186152, "ECCENTRICITY": 0.0001524, "INCLINATION": 42.9999, "RA_OF_ASC_NODE": 79.462, "ARG_OF_PERICENTER": 268.2701, "MEAN_ANOMALY": 21.8015, "EPHEMERIS_TYPE": 0, "CLASSIFICATION_TYPE": "U", "NORAD_CAT_ID": 66966, "ELEMENT_SET_NO": 999, "REV_AT_EPOCH": 414, "BSTAR": -0.030702, "MEAN_MOTION_DOT": -0.02047036, "MEAN_MOTION_DDOT": 0}, "tle": {"line1": "1 66966U 25288H   25361.16668980 -.02047036  00000+0 -30702-1 0  9995", "line2": "2 66966  42.9999  79.4620 0001524 268.2701  21.8015 15.57186152  4140"}}, "geometry": {"type": "Point", "coordinates": [10.349775756869041, -40.82251679178289]}}, {"type": "Feature", "properties": {"norad_id": 66967, "name": "STARLINK-36136", "group": "last-30-days", "lat": -40.30817021948186, "lon": 12.770865292341016, "alt_km": 400.6130769414076, "timestamp": "2025-12-27T08:36:17.079839+00:00", "meta": {"OBJECT_NAME": "STARLINK-36136", "OBJECT_ID": "2025-288J", "EPOCH": "2025-12-27T04:00:01.998720", "MEAN_MOTION": 15.57187122, "ECCENTRICITY": 0.0001369, "INCLINATION": 43.0001, "RA_OF_ASC_NODE": 79.4573, "ARG_OF_PERICENTER": 267.4071, "MEAN_ANOMALY": 24.5795, "EPHEMERIS_TYPE": 0, "CLASSIFICATION_TYPE": "U", "NORAD_CAT_ID": 66967, "ELEMENT_SET_NO": 999, "REV_AT_EPOCH": 414, "BSTAR": -0.03069, "MEAN_MOTION_DOT": -0.02046321, "MEAN_MOTION_DDOT": 0}, "tle": {"line1": "1 66967U 25288J   25361.16668980 -.02046321  00000+0 -30690-1 0  9998", "line2": "2 66967  43.0001  79.4573 0001369 267.4071  24.5795 15.57187122  4145"}}, "geometry": {"type": "Point", "coordinates": [12.770865292341016, -40.30817021948186]}}, {"type": "Feature", "properties": {"norad_id": 66968, "name": "STARLINK-36152", "group": "last-30-days", "lat": -39.74330814459109, "lon": 15.154414186314305, "alt_km": 400.5552916167662, "timestamp": "2025-12-27T08:36:17.079849+00:00", "meta": {"OBJECT_NAME": "STARLINK-36152", "OBJECT_ID": "2025-288K", "EPOCH": "2025-12-27T04:00:01.998720", "MEAN_MOTION": 15.57181702, "ECCENTRICITY": 0.0001431, "INCLINATION": 43, "RA_OF_ASC_NODE": 79.4521, "ARG_OF_PERICENTER": 269.1357, "MEAN_ANOMALY": 24.7705, "EPHEMERIS_TYPE": 0, "CLASSIFICATION_TYPE": "U", "NORAD_CAT_ID": 66968, "ELEMENT_SET_NO": 999, "REV_AT_EPOCH": 414, "BSTAR": -0.03058, "MEAN_MOTION_DOT": -0.02039439, "MEAN_MOTION_DDOT": 0}, "tle": {"line1": "1 66968U 25288K   25361.16668980 -.02039439  00000+0 -30580-1 0  9999", "line2": "2 66968  43.0000  79.4521 0001431 269.1357  24.7705 15.57181702  4145"}}, "geometry": {"type": "Point", "coordinates": [15.154414186314305, -39.74330814459109]}}, {"type": "Feature", "properties": {"norad_id": 66969, "name": "STARLINK-36149", "group": "last-30-days", "lat": -36.2334587989885, "lon": 26.446125288125963, "alt_km": 400.5179019591269, "timestamp": "2025-12-27T08:36:17.079859+00:00", "meta": {"OBJECT_NAME": "STARLINK-36149", "OBJECT_ID": "2025-288L", "EPOCH": "2025-12-27T04:00:01.998720", "MEAN_MOTION": 15.57181954, "ECCENTRICITY": 0.0001404, "INCLINATION": 42.9998, "RA_OF_ASC_NODE": 79.4282, "ARG_OF_PERICENTER": 264.7665, "MEAN_ANOMALY": 38.724, "EPHEMERIS_TYPE": 0, "CLASSIFICATION_TYPE": "U", "NORAD_CAT_ID": 66969, "ELEMENT_SET_NO": 999, "REV_AT_EPOCH": 414, "BSTAR": -0.030515, "MEAN_MOTION_DOT": -0.02035529, "MEAN_MOTION_DDOT": 0}, "tle": {"line1": "1 66969U 25288L   25361.16668980 -.02035529  00000+0 -30515-1 0  9994", "line2": "2 66969  42.9998  79.4282 0001404 264.7665  38.7240 15.57181954  4145"}}, "geometry": {"type": "Point", "coordinates": [26.446125288125963, -36.2334587989885]}}]}